[{"OBJECT_NAME":"FLOCK 4G-8","OBJECT_ID":"2025-009E","EPOCH":"2026-03-09T17:22:17.546016","MEAN_MOTION":15.27623414,"ECCENTRICITY":0.00030503,"INCLINATION":97.4045,"RA_OF_ASC_NODE":151.2834,"ARG_OF_PERICENTER":315.2538,"MEAN_ANOMALY":44.8455,"EPHEMERIS_TYPE":0,"CLASSIFICATION_TYPE":"U","NORAD_CAT_ID":62613,"ELEMENT_SET_NO":999,"REV_AT_EPOCH":6372,"BSTAR":0.0005043806,"MEAN_MOTION_DOT":0.00013559,"MEAN_MOTION_DDOT":0},{"OBJECT_NAME":"STARLINK-35989","OBJECT_ID":"2025-278AE","EPOCH":"2026-03-09T04:50:31.157664","MEAN_MOTION":15.27588589,"ECCENTRICITY":0.00015847,"INCLINATION":43.0011,"RA_OF_ASC_NODE":117.1875,"ARG_OF_PERICENTER":275.3817,"MEAN_ANOMALY":84.6854,"EPHEMERIS_TYPE":0,"CLASSIFICATION_TYPE":"U","NORAD_CAT_ID":66819,"ELEMENT_SET_NO":999,"REV_AT_EPOCH":1513,"BSTAR":0.0011589326,"MEAN_MOTION_DOT":0.00031775,"MEAN_MOTION_DDOT":0}]
