FLOCK 4G-8              
1 62613U 25009E   26068.72381419  .00013559  00000+0  50438-3 0  9996
2 62613  97.4045 151.2834 0003050 315.2538  44.8455 15.27623414 63721
STARLINK-35989          
1 66819U 25278AE  26068.20174951  .00031775  00000+0  11589-2 0  9993
2 66819  43.0011 117.1875 0001584 275.3817  84.6854 15.27588589 15135
